     2.10           G: GLONASS NAV DATA                     RINEX VERSION / TYPE
teqc  2015Jun23                         20220419 01:27:29UTCPGM / RUN BY / DATE
Linux 2.4.21-27.ELsmp|Opteron|gcc -static|Linux x86_64|=+   COMMENT
  2022     4     8   -9.313225746155D-10                    CORR TO SYSTEM TIME
                                                            END OF HEADER
12 22  4  9 12 45  0.0 1.783762127161D-05 0.000000000000D+00 4.500000000000D+04
    5.768536132812D+03-2.122593879700D+00-0.000000000000D+00 0.000000000000D+00
    1.548344628906D+04-1.610292434692D+00-0.000000000000D+00-1.000000000000D+00
   -1.941964599609D+04-1.910408973694D+00 2.793967723846D-09 0.000000000000D+00
13 22  4  9 12 45  0.0-2.062693238258D-05-0.000000000000D+00 4.500000000000D+04
    1.853976611328D+04-5.998859405518D-01-0.000000000000D+00 0.000000000000D+00
    1.643200292969D+04-5.956153869629D-01 0.000000000000D+00-2.000000000000D+00
   -6.101568359375D+03-3.437258720398D+00 1.862645149231D-09 0.000000000000D+00
22 22  4  9 12 45  0.0-1.758215948939D-04-9.094947017729D-13 4.548000000000D+04
   -2.137399804688D+04-7.354555130005D-01 0.000000000000D+00 0.000000000000D+00
    1.235743310547D+04 5.848855972290D-01 9.313225746155D-10-3.000000000000D+00
    6.606738281250D+03-3.455398559570D+00 0.000000000000D+00 0.000000000000D+00
23 22  4  9 12 45  0.0-3.652181476355D-05-9.094947017729D-13 4.590000000000D+04
   -4.666683593750D+03-2.702609062195D+00 0.000000000000D+00 0.000000000000D+00
    1.253742236328D+04 1.259229660034D+00 2.793967723846D-09 3.000000000000D+00
    2.171070019531D+04-1.306561470032D+00-0.000000000000D+00 0.000000000000D+00
 2 22  4  9 13 15  0.0 5.149971693754D-04 9.094947017729D-13 4.680000000000D+04
    6.381144531250D+03 1.905260086060D-01-0.000000000000D+00 0.000000000000D+00
    2.132314746094D+04 1.710100173950D+00 0.000000000000D+00-4.000000000000D+00
   -1.246900585938D+04 3.004604339600D+00 2.793967723846D-09 0.000000000000D+00
 8 22  4  9 13 15  0.0-6.450060755014D-05 0.000000000000D+00 4.680000000000D+04
   -8.977567382812D+03 9.150505065918D-03 9.313225746155D-10 0.000000000000D+00
    1.350275195312D+04-2.691520690918D+00 1.862645149231D-09 6.000000000000D+00
    1.976156201172D+04 1.846791267395D+00-9.313225746155D-10 0.000000000000D+00
 1 22  4  9 13 15  0.0 7.667578756809D-06 0.000000000000D+00 4.680000000000D+04
   -2.056251464844D+03 8.702659606934D-02 0.000000000000D+00 0.000000000000D+00
    2.443237402344D+04-9.659194946289D-01 1.862645149231D-09 1.000000000000D+00
    7.016396484375D+03 3.393654823303D+00 9.313225746155D-10 0.000000000000D+00
12 22  4  9 13 15  0.0 1.783762127161D-05-0.000000000000D+00 4.680000000000D+04
    1.441426269531D+03-2.654064178467D+00-0.000000000000D+00 0.000000000000D+00
    1.269107812500D+04-1.453338623047D+00-9.313225746155D-10-1.000000000000D+00
   -2.206218554688D+04-1.006578445435D+00 1.862645149231D-09 0.000000000000D+00
13 22  4  9 13 15  0.0-2.062786370516D-05-0.000000000000D+00 4.680000000000D+04
    1.674646630859D+04-1.394355773926D+00-0.000000000000D+00 0.000000000000D+00
    1.507906542969D+04-8.651151657104D-01-0.000000000000D+00-2.000000000000D+00
   -1.197304785156D+04-3.044317245483D+00 2.793967723846D-09 0.000000000000D+00
22 22  4  9 13 15  0.0-1.758243888617D-04-9.094947017729D-13 4.680000000000D+04
   -2.193018408203D+04 1.052665710449D-01 0.000000000000D+00 0.000000000000D+00
    1.313565917969D+04 2.386341094971D-01 0.000000000000D+00-3.000000000000D+00
    2.129916992188D+02-3.602895736694D+00 0.000000000000D+00 0.000000000000D+00
23 22  4  9 13 15  0.0-3.652367740870D-05-9.094947017729D-13 4.680000000000D+04
   -9.027391113281D+03-2.110499382019D+00 0.000000000000D+00 0.000000000000D+00
    1.499578613281D+04 1.432489395142D+00 2.793967723846D-09 3.000000000000D+00
    1.854952099609D+04-2.183010101318D+00-0.000000000000D+00 0.000000000000D+00
 2 22  4  9 13 45  0.0 5.149990320206D-04 9.094947017729D-13 4.860000000000D+04
    6.867552246094D+03 3.108024597168D-01 0.000000000000D+00 0.000000000000D+00
    2.366979003906D+04 8.791027069092D-01 9.313225746155D-10-4.000000000000D+00
   -6.648927734375D+03 3.420095443726D+00 2.793967723846D-09 0.000000000000D+00
23 22  4  9 13 45  0.0-3.652647137642D-05-9.094947017729D-13 4.860000000000D+04
   -1.218061474609D+04-1.379239082336D+00 9.313225746155D-10 0.000000000000D+00
    1.753661767578D+04 1.344299316406D+00 1.862645149231D-09 3.000000000000D+00
    1.395354345703D+04-2.890435218811D+00-0.000000000000D+00 0.000000000000D+00
 1 22  4  9 13 45  0.0 7.667578756809D-06 0.000000000000D+00 4.860000000000D+04
   -2.130108886719D+03-2.026777267456D-01 9.313225746155D-10 0.000000000000D+00
    2.197264404297D+04-1.740497589111D+00 2.793967723846D-09 1.000000000000D+00
    1.277459082031D+04 2.962797164917D+00 0.000000000000D+00 0.000000000000D+00
12 22  4  9 13 45  0.0 1.783762127161D-05-0.000000000000D+00 4.860000000000D+04
   -3.648140625000D+03-2.956745147705D+00-9.313225746155D-10 0.000000000000D+00
    1.037097265625D+04-1.098232269287D+00-9.313225746155D-10-1.000000000000D+00
   -2.299617919922D+04-2.437400817871D-02 1.862645149231D-09 0.000000000000D+00
22 22  4  9 13 45  0.0-1.758281141520D-04-9.094947017729D-13 4.860000000000D+04
   -2.107180078125D+04 8.188486099243D-01-0.000000000000D+00 0.000000000000D+00
    1.308413964844D+04-3.268871307373D-01 0.000000000000D+00-3.000000000000D+00
   -6.197157226562D+03-3.473550796509D+00 0.000000000000D+00 0.000000000000D+00
 8 22  4  9 13 45  0.0-6.449874490499D-05 0.000000000000D+00 4.863000000000D+04
   -9.355838867188D+03-4.410066604614D-01 9.313225746155D-10 0.000000000000D+00
    8.334680664062D+03-3.002191543579D+00 1.862645149231D-09 6.000000000000D+00
    2.228422070312D+04 9.381475448608D-01-9.313225746155D-10 0.000000000000D+00
13 22  4  9 13 45  0.0-2.062786370516D-05-0.000000000000D+00 4.866000000000D+04
    1.354864794922D+04-2.141359329224D+00-0.000000000000D+00 0.000000000000D+00
    1.347223730469D+04-8.783941268921D-01-0.000000000000D+00-2.000000000000D+00
   -1.691983496094D+04-2.416523933411D+00 2.793967723846D-09 0.000000000000D+00
24 22  4  9 13 45  0.0 8.828006684780D-05 1.818989403546D-12 4.914000000000D+04
    1.437267089844D+03-2.370769500732D+00 9.313225746155D-10 0.000000000000D+00
    1.220191455078D+04 1.935217857361D+00 2.793967723846D-09 2.000000000000D+00
    2.236728613281D+04-9.044570922852D-01-0.000000000000D+00 0.000000000000D+00
 3 22  4  9 13 45  0.0 5.461554974318D-05 0.000000000000D+00 5.025000000000D+04
    1.143040673828D+04 5.270881652832D-01-9.313225746155D-10 0.000000000000D+00
    1.058886914062D+04 2.722010612488D+00-0.000000000000D+00 5.000000000000D+00
   -2.016380908203D+04 1.718995094299D+00 2.793967723846D-09 0.000000000000D+00
 2 22  4  9 14 15  0.0 5.150018259883D-04 9.094947017729D-13 5.040000000000D+04
    7.352442871094D+03 1.866159439087D-01 0.000000000000D+00 0.000000000000D+00
    2.445718310547D+04-2.913475036621D-03 1.862645149231D-09-4.000000000000D+00
   -3.156860351562D+02 3.571237564087D+00 1.862645149231D-09 0.000000000000D+00
13 22  4  9 14 15  0.0-2.062879502773D-05-0.000000000000D+00 5.040000000000D+04
    9.132009277344D+03-2.731706619263D+00-9.313225746155D-10 0.000000000000D+00
    1.205563085938D+04-6.617231369019D-01-0.000000000000D+00-2.000000000000D+00
   -2.056050878906D+04-1.602500915527D+00 1.862645149231D-09 0.000000000000D+00
 1 22  4  9 14 15  0.0 7.668510079384D-06 0.000000000000D+00 5.040000000000D+04
   -2.885716308594D+03-6.576776504517D-01 9.313225746155D-10 0.000000000000D+00
    1.828979052734D+04-2.310822486877D+00 1.862645149231D-09 1.000000000000D+00
    1.754474267578D+04 2.302996635437D+00-0.000000000000D+00 0.000000000000D+00
 3 22  4  9 14 15  0.0 5.461648106575D-05 0.000000000000D+00 5.040000000000D+04
    1.262036962891D+04 7.618370056152D-01-0.000000000000D+00 0.000000000000D+00
    1.497275292969D+04 2.114102363586D+00-0.000000000000D+00 5.000000000000D+00
   -1.632831347656D+04 2.514731407166D+00 2.793967723846D-09 0.000000000000D+00
12 22  4  9 14 15  0.0 1.783762127161D-05-0.000000000000D+00 5.040000000000D+04
   -9.029271484375D+03-2.971593856812D+00-9.313225746155D-10 0.000000000000D+00
    8.802882324219D+03-6.346197128296D-01-9.313225746155D-10-1.000000000000D+00
   -2.214859130859D+04 9.600572586060D-01 9.313225746155D-10 0.000000000000D+00
22 22  4  9 14 15  0.0-1.758309081197D-04-9.094947017729D-13 5.040000000000D+04
   -1.911332128906D+04 1.315385818481D+00-0.000000000000D+00 0.000000000000D+00
    1.187425732422D+04-1.032497406006D+00-0.000000000000D+00-3.000000000000D+00
   -1.213128759766D+04-3.077377319336D+00 0.000000000000D+00 0.000000000000D+00
23 22  4  9 14 15  0.0-3.652833402157D-05-9.094947017729D-13 5.040000000000D+04
   -1.397851660156D+04-6.243991851807D-01 9.313225746155D-10 0.000000000000D+00
    1.966778466797D+04 9.785871505737D-01 9.313225746155D-10 3.000000000000D+00
    8.278502441406D+03-3.374197959900D+00 0.000000000000D+00 0.000000000000D+00
24 22  4  9 14 15  0.0 8.828286081553D-05 1.818989403546D-12 5.040000000000D+04
   -2.363764160156D+03-1.827564239502D+00 9.313225746155D-10 0.000000000000D+00
    1.580095019531D+04 2.019640922546D+00 1.862645149231D-09 2.000000000000D+00
    1.989681689453D+04-1.822758674622D+00-0.000000000000D+00 0.000000000000D+00
 2 22  4  9 14 45  0.0 5.150046199560D-04 9.094947017729D-13 5.220000000000D+04
    7.397457519531D+03-1.726207733154D-01 9.313225746155D-10 0.000000000000D+00
    2.369884130859D+04-8.194570541382D-01 1.862645149231D-09-4.000000000000D+00
    6.042002441406D+03 3.447212219238D+00 9.313225746155D-10 0.000000000000D+00
23 22  4  9 14 45  0.0-3.653112798929D-05-9.094947017729D-13 5.220000000000D+04
   -1.448368359375D+04 3.904914855957D-02 0.000000000000D+00 0.000000000000D+00
    2.091085839844D+04 3.665418624878D-01 9.313225746155D-10 3.000000000000D+00
    1.963413085938D+03-3.597003936768D+00 0.000000000000D+00 0.000000000000D+00
